NORAD_CAT_ID,OBJECT_NAME,OBJECT_TYPE,EPOCH,MEAN_MOTION,ECCENTRICITY,INCLINATION,RA_OF_ASC_NODE,ARG_OF_PERICENTER,MEAN_ANOMALY,BSTAR,MEAN_MOTION_DOT,MEAN_MOTION_DDOT,TLE_LINE0,TLE_LINE1,TLE_LINE2,SEMIMAJOR_AXIS,PERIOD,APOGEE,PERIGEE,DECAYED
49423.0,STARLINK-3149,PAYLOAD,2024-04-14 05:40:18,15.08835887,0.0001436,53.2174,106.8346,100.9923,259.1231,5.7276e-05,6.24e-06,0.0,0 STARLINK-3149,1 49423U 21104R   24105.23631953  .00000624  00000-0  57276-4 0  9997,2 49423  53.2174 106.8346 0001436 100.9923 259.1231 15.08835887134871,6917.893,95.438,540.751,538.765,0.0
49423.0,STARLINK-3149,PAYLOAD,2024-04-15 08:41:50,15.08846442,0.0001448,53.217,101.7786,94.6265,265.4892,8.8344e-05,1.119e-05,0.0,0 STARLINK-3149,1 49423U 21104R   24106.36239419  .00001119  00000-0  88344-4 0  9993,2 49423  53.2170 101.7786 0001448  94.6265 265.4892 15.08846442135042,6917.861,95.437,540.727,538.724,0.0
49423.0,STARLINK-3149,PAYLOAD,2024-04-16 05:21:52,15.08837042,0.0001715,53.2187,97.9136,85.5471,274.5717,5.2661e-05,5.5e-06,0.0,0 STARLINK-3149,1 49423U 21104R   24107.22352397  .00000550  00000-0  52661-4 0  9991,2 49423  53.2187  97.9136 0001715  85.5471 274.5717 15.08837042135177,6917.889,95.438,540.941,538.568,0.0
49423.0,STARLINK-3149,PAYLOAD,2024-04-16 08:32:38,15.0883446,0.0001577,53.2181,97.3187,79.1689,280.948,0.00010772,1.427e-05,0.0,0 STARLINK-3149,1 49423U 21104R   24107.35600428  .00001427  00000-0  10772-3 0  9996,2 49423  53.2181  97.3187 0001577  79.1689 280.9480 15.08834460134108,6917.897,95.438,540.853,538.671,0.0
49423.0,STARLINK-3149,PAYLOAD,2024-04-17 05:12:37,15.08858364,0.0001731,53.2185,93.4527,82.0342,278.0846,0.00014974,2.097e-05,0.0,0 STARLINK-3149,1 49423U 21104R   24108.21710517  .00002097  00000-0  14974-3 0  9995,2 49423  53.2185  93.4527 0001731  82.0342 278.0846 15.08858364135326,6917.824,95.436,540.887,538.492,0.0
49423.0,STARLINK-3149,PAYLOAD,2024-04-17 08:23:24,15.08863964,0.0001464,53.2156,92.8572,88.1012,272.0148,0.00030906,4.637e-05,0.0,0 STARLINK-3149,1 49423U 21104R   24108.34958352  .00004637  00000-0  30906-3 0  9995,2 49423  53.2156  92.8572 0001464  88.1012 272.0148 15.08863964134253,6917.807,95.436,540.685,538.659,0.0
49423.0,STARLINK-3149,PAYLOAD,2024-04-18 03:28:03,15.08823587,0.0001439,53.2166,89.29,82.3942,277.7213,-8.6895e-05,-1.67e-05,0.0,0 STARLINK-3149,1 49423U 21104R   24109.14448929 -.00001670  00000-0 -86895-4 0  9993,2 49423  53.2166  89.2900 0001439  82.3942 277.7213 15.08823587135465,6917.931,95.439,540.791,538.8,0.0
49423.0,STARLINK-3149,PAYLOAD,2024-04-18 08:14:13,15.08826693,0.0001448,53.2157,88.3966,90.9093,269.2065,-0.00011222,-2.073e-05,0.0,0 STARLINK-3149,1 49423U 21104R   24109.34320705 -.00002073  00000-0 -11222-3 0  9995,2 49423  53.2157  88.3966 0001448  90.9093 269.2065 15.08826693134404,6917.921,95.438,540.788,538.784,0.0
49423.0,STARLINK-3149,PAYLOAD,2024-04-19 04:54:14,15.08846128,0.0001467,53.2162,84.5301,95.3678,264.7482,0.00088027,0.00013752,0.0,0 STARLINK-3149,1 49423U 21104R   24110.20432950  .00013752  00000-0  88027-3 0  9999,2 49423  53.2162  84.5301 0001467  95.3678 264.7482 15.08846128135623,6917.862,95.437,540.742,538.712,0.0
49423.0,STARLINK-3149,PAYLOAD,2024-04-19 08:05:00,15.08853882,0.0001516,53.2165,83.9359,98.1771,261.9393,0.0010578,0.00016593,0.0,0 STARLINK-3149,1 49423U 21104R   24110.33680836  .00016593  00000-0  10578-2 0  9992,2 49423  53.2165  83.9359 0001516  98.1771 261.9393 15.08853882134558,6917.838,95.437,540.752,538.654,0.0
49423.0,STARLINK-3149,PAYLOAD,2024-04-20 07:55:46,15.08864504,0.0001935,53.2182,79.4701,111.2558,248.8641,0.0005617,8.669e-05,0.0,0 STARLINK-3149,1 49423U 21104R   24111.33039760  .00008669  00000-0  56170-3 0  9991,2 49423  53.2182  79.4701 0001935 111.2558 248.8641 15.08864504135793,6917.805,95.436,541.009,538.332,0.0
49423.0,STARLINK-3149,PAYLOAD,2024-04-21 03:00:25,15.08816822,0.0001586,53.2186,75.9035,111.3143,248.8018,-0.00041101,-6.819e-05,0.0,0 STARLINK-3149,1 49423U 21104R   24112.12529548 -.00006819  00000-0 -41101-3 0  9992,2 49423  53.2186  75.9035 0001586 111.3143 248.8018 15.08816822135913,6917.951,95.439,540.913,538.719,0.0
49423.0,STARLINK-3149,PAYLOAD,2024-04-22 02:51:12,15.08851612,0.0001686,53.2177,71.4437,118.6849,241.4312,0.0011349,0.00017826,0.0,0 STARLINK-3149,1 49423U 21104R   24113.11889279  .00017826  00000-0  11349-2 0  9990,2 49423  53.2177  71.4437 0001686 118.6849 241.4312 15.08851612136063,6917.845,95.437,540.876,538.544,0.0
49423.0,STARLINK-3149,PAYLOAD,2024-04-22 06:01:58,15.08862443,0.0001328,53.2182,70.8489,95.8421,264.2722,0.0014461,0.00022816,0.0,0 STARLINK-3149,1 49423U 21104R   24113.25137171  .00022816  00000-0  14461-2 0  9995,2 49423  53.2182  70.8489 0001328  95.8421 264.2722 15.08862443134996,6917.812,95.436,540.595,538.758,0.0
49423.0,STARLINK-3149,PAYLOAD,2024-04-23 04:17:22,15.08852672,0.0001154,53.2179,66.6884,80.4629,279.6494,0.0003042,4.558e-05,0.0,0 STARLINK-3149,1 49423U 21104R   24114.17873093  .00004558  00000-0  30420-3 0  9994,2 49423  53.2179  66.6884 0001154  80.4629 279.6494 15.08852672136228,6917.842,95.437,540.505,538.908,0.0
49423.0,STARLINK-3149,PAYLOAD,2024-04-23 05:52:45,15.08856587,0.0001245,53.2184,66.3895,99.9901,260.1232,0.00063934,9.906e-05,0.0,0 STARLINK-3149,1 49423U 21104R   24114.24496931  .00009906  00000-0  63934-3 0  9992,2 49423  53.2184  66.3895 0001245  99.9901 260.1232 15.08856587135146,6917.83,95.437,540.556,538.833,0.0
49423.0,STARLINK-3149,PAYLOAD,2024-04-23 20:11:13,15.08820234,0.0001693,53.2186,63.7135,163.5683,196.5365,0.00013577,1.872e-05,0.0,0 STARLINK-3149,1 49423U 21104R   24114.84113230  .00001872  00000-0  13577-3 0  9998,2 49423  53.2186  63.7135 0001693 163.5683 196.5365 15.08820234136328,6917.941,95.439,540.977,538.635,0.0
49423.0,STARLINK-3149,PAYLOAD,2024-04-24 02:32:46,15.08835185,0.0001814,53.2176,62.5308,122.6566,237.4602,0.0010032,0.00015712,0.0,0 STARLINK-3149,1 49423U 21104R   24115.10609519  .00015712  00000-0  10032-2 0  9998,2 49423  53.2176  62.5308 0001814 122.6566 237.4602 15.08835185136361,6917.895,95.438,541.015,538.505,0.0
49423.0,STARLINK-3149,PAYLOAD,2024-04-24 05:43:32,15.08847983,0.0002364,53.218,61.9337,140.5892,219.5272,0.0013148,0.00020704,0.0,0 STARLINK-3149,1 49423U 21104R   24115.23857200  .00020704  00000-0  13148-2 0  9992,2 49423  53.2180  61.9337 0002364 140.5892 219.5272 15.08847983135297,6917.856,95.437,541.356,538.086,0.0
49423.0,STARLINK-3149,PAYLOAD,2024-04-25 02:23:33,15.08843056,0.0001349,53.2174,58.0659,80.9871,279.1274,0.00074176,0.00011538,0.0,0 STARLINK-3149,1 49423U 21104R   24116.09969765  .00011538  00000-0  74176-3 0  9991,2 49423  53.2174  58.0659 0001349  80.9871 279.1274 15.08843056136517,6917.871,95.437,540.669,538.803,0.0
49423.0,STARLINK-3149,PAYLOAD,2024-04-26 05:25:07,15.08849247,0.0001108,53.2165,53.0098,78.7353,281.3764,0.0012137,0.00019086,0.0,0 STARLINK-3149,1 49423U 21104R   24117.22577821  .00019086  00000-0  12137-2 0  9999,2 49423  53.2165  53.0098 0001108  78.7353 281.3764 15.08849247136687,6917.852,95.437,540.484,538.951,0.0
49423.0,STARLINK-3149,PAYLOAD,2024-04-27 02:05:07,15.08855981,0.0001574,53.2178,49.1405,84.3396,275.7776,0.0006424,9.955e-05,0.0,0 STARLINK-3149,1 49423U 21104R   24118.08689277  .00009955  00000-0  64240-3 0  9990,2 49423  53.2178  49.1405 0001574  84.3396 275.7776 15.08855981136813,6917.832,95.437,540.785,538.608,0.0
49423.0,STARLINK-3149,PAYLOAD,2024-04-27 05:15:53,15.08861992,0.0001627,53.2183,48.5444,90.1573,269.9605,0.00072034,0.00011202,0.0,0 STARLINK-3149,1 49423U 21104R   24118.21937036  .00011202  00000-0  72034-3 0  9992,2 49423  53.2183  48.5444 0001627  90.1573 269.9605 15.08861992135742,6917.813,95.436,540.804,538.553,0.0
49423.0,STARLINK-3149,PAYLOAD,2024-04-28 01:55:55,15.08834888,0.0001352,53.2176,44.683,63.2595,296.8535,5.8502e-05,6.43e-06,0.0,0 STARLINK-3149,1 49423U 21104R   24119.08049966  .00000643  00000-0  58502-4 0  9996,2 49423  53.2176  44.6830 0001352  63.2595 296.8535 15.08834888136960,6917.896,95.438,540.696,538.826,0.0
49423.0,STARLINK-3149,PAYLOAD,2024-04-28 11:28:14,15.08834856,0.0001484,53.2183,42.9007,60.9168,299.1973,0.00019103,2.753e-05,0.0,0 STARLINK-3149,1 49423U 21104R   24119.47794261  .00002753  00000-0  19103-3 0  9991,2 49423  53.2183  42.9007 0001484  60.9168 299.1973 15.08834856135934,6917.896,95.438,540.788,538.734,0.0
49423.0,STARLINK-3149,PAYLOAD,2024-04-28 22:35:56,15.08839021,0.0001424,53.2186,40.8223,74.002,286.1129,0.00017034,2.424e-05,0.0,0 STARLINK-3149,1 49423U 21104R   24119.94162373  .00002424  00000-0  17034-3 0  9992,2 49423  53.2186  40.8223 0001424  74.0020 286.1129 15.08839021136008,6917.883,95.438,540.733,538.763,0.0
49423.0,STARLINK-3149,PAYLOAD,2024-04-29 04:57:28,15.08845483,0.0001282,53.2169,39.6299,74.4511,285.6623,0.00080803,0.00012597,0.0,0 STARLINK-3149,1 49423U 21104R   24120.20658068  .00012597  00000-0  80803-3 0  9990,2 49423  53.2169  39.6299 0001282  74.4511 285.6623 15.08845483137136,6917.864,95.437,540.615,538.842,0.0
49423.0,STARLINK-3149,PAYLOAD,2024-04-29 11:19:01,15.0884625,0.0001245,53.2175,38.4426,75.9005,284.2125,0.00078561,0.00012239,0.0,0 STARLINK-3149,1 49423U 21104R   24120.47154112  .00012239  00000-0  78561-3 0  9991,2 49423  53.2175  38.4426 0001245  75.9005 284.2125 15.08846250136083,6917.861,95.437,540.588,538.865,0.0
49423.0,STARLINK-3149,PAYLOAD,2024-04-29 22:26:42,15.08853732,0.0001434,53.2178,36.361,79.8583,280.2571,0.00032253,4.851e-05,0.0,0 STARLINK-3149,1 49423U 21104R   24120.93521513  .00004851  00000-0  32253-3 0  9994,2 49423  53.2178  36.3610 0001434  79.8583 280.2571 15.08853732136154,6917.838,95.437,540.695,538.711,0.0
49423.0,STARLINK-3149,PAYLOAD,2024-04-30 11:09:47,15.08838186,0.0001276,53.2188,33.9845,93.9847,266.1291,-0.00021664,-3.734e-05,0.0,0 STARLINK-3149,1 49423U 21104R   24121.46513518 -.00003734  00000-0 -21664-3 0  9994,2 49423  53.2188  33.9845 0001276  93.9847 266.1291 15.08838186137320,6917.886,95.438,540.634,538.868,0.0
